STARLINK-36753          
1 67694U 26025B   26048.91668981 -.01627342  76367-3 -42979-2 0  9997
2 67694  97.2779 159.3951 0001733  77.4256 120.8265 15.94821921  2832
STARLINK-36750          
1 67695U 26025C   26048.91668981 -.01635635  76691-3 -44359-2 0  9996
2 67695  97.2785 159.3903 0001507  78.2516 109.1852 15.94321859  2673
STARLINK-36401          
1 67696U 26025D   26048.91668981 -.01640030  77259-3 -43942-2 0  9990
2 67696  97.2782 159.3925 0001639  76.6460 115.8868 15.94551858  2676
STARLINK-36704          
1 67697U 26025E   26048.91668981 -.01616288  75622-3 -42070-2 0  9992
2 67697  97.2774 159.3974 0001551  78.1653 125.8289 15.95094900  2675
STARLINK-36697          
1 67698U 26025F   26048.91668981 -.01611768  75382-3 -41524-2 0  9997
2 67698  97.2775 159.3993 0001606  79.7731 128.4254 15.95286815  2627
STARLINK-36716          
1 67699U 26025G   26048.91668981 -.01603805  74892-3 -40758-2 0  9994
2 67699  97.2771 159.4014 0001522  81.4731 132.1190 15.95541946  2839
STARLINK-36712          
1 67700U 26025H   26048.91668981 -.01591677  74036-3 -39917-2 0  9995
2 67700  97.2769 159.4040 0001629  80.0056 138.8187 15.95787502  2627
STARLINK-36713          
1 67701U 26025J   26048.91668981 -.01580674  73281-3 -39114-2 0  9991
2 67701  97.2763 159.4057 0001598  70.6147 153.4049 15.96035437  2838
STARLINK-36695          
1 67702U 26025K   26048.91668981 -.01575344  72977-3 -38566-2 0  9991
2 67702  97.2760 159.4074 0001591  72.3479 156.0198 15.96234142  2675
STARLINK-36630          
1 67703U 26025L   26048.91668981 -.01564872  72226-3 -37911-2 0  9996
2 67703  97.2760 159.4095 0001613  73.7795 158.7993 15.96426019  2678
STARLINK-36338          
1 67704U 26025M   26048.91668981 -.01558977  71927-3 -37226-2 0  9992
2 67704  97.2758 159.4117 0001458  80.7044 157.3940 15.96693047  2723
STARLINK-36316          
1 67705U 26025N   26048.91668981 -.01536883  70449-3 -35644-2 0  9995
2 67705  97.2755 159.4162 0001454  74.0816 175.1091 15.97226081  2726
