CCSDS_OMM_VERS = 2.0
CREATION_DATE  = 
ORIGINATOR     = 

OBJECT_NAME    = STARLINK-36753
OBJECT_ID      = 2026-025B
CENTER_NAME    = EARTH
REF_FRAME      = TEME
TIME_SYSTEM    = UTC
MEAN_ELEMENT_THEORY = SGP/SGP4

EPOCH          = 2026-02-17T22:00:01.999584
MEAN_MOTION    = 15.94821921
ECCENTRICITY   = .00017336
INCLINATION    = 97.2779
RA_OF_ASC_NODE = 159.3951
ARG_OF_PERICENTER = 77.4256
MEAN_ANOMALY   = 120.8265

EPHEMERIS_TYPE = 0
CLASSIFICATION_TYPE = U
NORAD_CAT_ID   = 67694
ELEMENT_SET_NO = 999
REV_AT_EPOCH   = 283
BSTAR          = -.42978708E-2
MEAN_MOTION_DOT = -.1627342E-1
MEAN_MOTION_DDOT = .76366953E-3

CCSDS_OMM_VERS = 2.0
CREATION_DATE  = 
ORIGINATOR     = 

OBJECT_NAME    = STARLINK-36750
OBJECT_ID      = 2026-025C
CENTER_NAME    = EARTH
REF_FRAME      = TEME
TIME_SYSTEM    = UTC
MEAN_ELEMENT_THEORY = SGP/SGP4

EPOCH          = 2026-02-17T22:00:01.999584
MEAN_MOTION    = 15.94321859
ECCENTRICITY   = .00015074
INCLINATION    = 97.2785
RA_OF_ASC_NODE = 159.3903
ARG_OF_PERICENTER = 78.2516
MEAN_ANOMALY   = 109.1852

EPHEMERIS_TYPE = 0
CLASSIFICATION_TYPE = U
NORAD_CAT_ID   = 67695
ELEMENT_SET_NO = 999
REV_AT_EPOCH   = 267
BSTAR          = -.44359265E-2
MEAN_MOTION_DOT = -.1635635E-1
MEAN_MOTION_DDOT = .76690747E-3

CCSDS_OMM_VERS = 2.0
CREATION_DATE  = 
ORIGINATOR     = 

OBJECT_NAME    = STARLINK-36401
OBJECT_ID      = 2026-025D
CENTER_NAME    = EARTH
REF_FRAME      = TEME
TIME_SYSTEM    = UTC
MEAN_ELEMENT_THEORY = SGP/SGP4

EPOCH          = 2026-02-17T22:00:01.999584
MEAN_MOTION    = 15.94551858
ECCENTRICITY   = .00016398
INCLINATION    = 97.2782
RA_OF_ASC_NODE = 159.3925
ARG_OF_PERICENTER = 76.6460
MEAN_ANOMALY   = 115.8868

EPHEMERIS_TYPE = 0
CLASSIFICATION_TYPE = U
NORAD_CAT_ID   = 67696
ELEMENT_SET_NO = 999
REV_AT_EPOCH   = 267
BSTAR          = -.4394222E-2
MEAN_MOTION_DOT = -.164003E-1
MEAN_MOTION_DDOT = .77258929E-3

CCSDS_OMM_VERS = 2.0
CREATION_DATE  = 
ORIGINATOR     = 

OBJECT_NAME    = STARLINK-36704
OBJECT_ID      = 2026-025E
CENTER_NAME    = EARTH
REF_FRAME      = TEME
TIME_SYSTEM    = UTC
MEAN_ELEMENT_THEORY = SGP/SGP4

EPOCH          = 2026-02-17T22:00:01.999584
MEAN_MOTION    = 15.95094900
ECCENTRICITY   = .00015512
INCLINATION    = 97.2774
RA_OF_ASC_NODE = 159.3974
ARG_OF_PERICENTER = 78.1653
MEAN_ANOMALY   = 125.8289

EPHEMERIS_TYPE = 0
CLASSIFICATION_TYPE = U
NORAD_CAT_ID   = 67697
ELEMENT_SET_NO = 999
REV_AT_EPOCH   = 267
BSTAR          = -.42070283E-2
MEAN_MOTION_DOT = -.1616288E-1
MEAN_MOTION_DDOT = .7562197E-3

CCSDS_OMM_VERS = 2.0
CREATION_DATE  = 
ORIGINATOR     = 

OBJECT_NAME    = STARLINK-36697
OBJECT_ID      = 2026-025F
CENTER_NAME    = EARTH
REF_FRAME      = TEME
TIME_SYSTEM    = UTC
MEAN_ELEMENT_THEORY = SGP/SGP4

EPOCH          = 2026-02-17T22:00:01.999584
MEAN_MOTION    = 15.95286815
ECCENTRICITY   = .00016069
INCLINATION    = 97.2775
RA_OF_ASC_NODE = 159.3993
ARG_OF_PERICENTER = 79.7731
MEAN_ANOMALY   = 128.4254

EPHEMERIS_TYPE = 0
CLASSIFICATION_TYPE = U
NORAD_CAT_ID   = 67698
ELEMENT_SET_NO = 999
REV_AT_EPOCH   = 262
BSTAR          = -.41524324E-2
MEAN_MOTION_DOT = -.1611768E-1
MEAN_MOTION_DDOT = .75381528E-3

CCSDS_OMM_VERS = 2.0
CREATION_DATE  = 
ORIGINATOR     = 

OBJECT_NAME    = STARLINK-36716
OBJECT_ID      = 2026-025G
CENTER_NAME    = EARTH
REF_FRAME      = TEME
TIME_SYSTEM    = UTC
MEAN_ELEMENT_THEORY = SGP/SGP4

EPOCH          = 2026-02-17T22:00:01.999584
MEAN_MOTION    = 15.95541946
ECCENTRICITY   = .00015225
INCLINATION    = 97.2771
RA_OF_ASC_NODE = 159.4014
ARG_OF_PERICENTER = 81.4731
MEAN_ANOMALY   = 132.1190

EPHEMERIS_TYPE = 0
CLASSIFICATION_TYPE = U
NORAD_CAT_ID   = 67699
ELEMENT_SET_NO = 999
REV_AT_EPOCH   = 283
BSTAR          = -.40758284E-2
MEAN_MOTION_DOT = -.1603805E-1
MEAN_MOTION_DDOT = .74892279E-3

CCSDS_OMM_VERS = 2.0
CREATION_DATE  = 
ORIGINATOR     = 

OBJECT_NAME    = STARLINK-36712
OBJECT_ID      = 2026-025H
CENTER_NAME    = EARTH
REF_FRAME      = TEME
TIME_SYSTEM    = UTC
MEAN_ELEMENT_THEORY = SGP/SGP4

EPOCH          = 2026-02-17T22:00:01.999584
MEAN_MOTION    = 15.95787502
ECCENTRICITY   = .00016294
INCLINATION    = 97.2769
RA_OF_ASC_NODE = 159.4040
ARG_OF_PERICENTER = 80.0056
MEAN_ANOMALY   = 138.8187

EPHEMERIS_TYPE = 0
CLASSIFICATION_TYPE = U
NORAD_CAT_ID   = 67700
ELEMENT_SET_NO = 999
REV_AT_EPOCH   = 262
BSTAR          = -.39917324E-2
MEAN_MOTION_DOT = -.1591677E-1
MEAN_MOTION_DDOT = .74035787E-3

CCSDS_OMM_VERS = 2.0
CREATION_DATE  = 
ORIGINATOR     = 

OBJECT_NAME    = STARLINK-36713
OBJECT_ID      = 2026-025J
CENTER_NAME    = EARTH
REF_FRAME      = TEME
TIME_SYSTEM    = UTC
MEAN_ELEMENT_THEORY = SGP/SGP4

EPOCH          = 2026-02-17T22:00:01.999584
MEAN_MOTION    = 15.96035437
ECCENTRICITY   = .00015984
INCLINATION    = 97.2763
RA_OF_ASC_NODE = 159.4057
ARG_OF_PERICENTER = 70.6147
MEAN_ANOMALY   = 153.4049

EPHEMERIS_TYPE = 0
CLASSIFICATION_TYPE = U
NORAD_CAT_ID   = 67701
ELEMENT_SET_NO = 999
REV_AT_EPOCH   = 283
BSTAR          = -.39113963E-2
MEAN_MOTION_DOT = -.1580674E-1
MEAN_MOTION_DDOT = .73280888E-3

CCSDS_OMM_VERS = 2.0
CREATION_DATE  = 
ORIGINATOR     = 

OBJECT_NAME    = STARLINK-36695
OBJECT_ID      = 2026-025K
CENTER_NAME    = EARTH
REF_FRAME      = TEME
TIME_SYSTEM    = UTC
MEAN_ELEMENT_THEORY = SGP/SGP4

EPOCH          = 2026-02-17T22:00:01.999584
MEAN_MOTION    = 15.96234142
ECCENTRICITY   = .00015912
INCLINATION    = 97.2760
RA_OF_ASC_NODE = 159.4074
ARG_OF_PERICENTER = 72.3479
MEAN_ANOMALY   = 156.0198

EPHEMERIS_TYPE = 0
CLASSIFICATION_TYPE = U
NORAD_CAT_ID   = 67702
ELEMENT_SET_NO = 999
REV_AT_EPOCH   = 267
BSTAR          = -.38565658E-2
MEAN_MOTION_DOT = -.1575344E-1
MEAN_MOTION_DDOT = .72976854E-3

CCSDS_OMM_VERS = 2.0
CREATION_DATE  = 
ORIGINATOR     = 

OBJECT_NAME    = STARLINK-36630
OBJECT_ID      = 2026-025L
CENTER_NAME    = EARTH
REF_FRAME      = TEME
TIME_SYSTEM    = UTC
MEAN_ELEMENT_THEORY = SGP/SGP4

EPOCH          = 2026-02-17T22:00:01.999584
MEAN_MOTION    = 15.96426019
ECCENTRICITY   = .00016136
INCLINATION    = 97.2760
RA_OF_ASC_NODE = 159.4095
ARG_OF_PERICENTER = 73.7795
MEAN_ANOMALY   = 158.7993

EPHEMERIS_TYPE = 0
CLASSIFICATION_TYPE = U
NORAD_CAT_ID   = 67703
ELEMENT_SET_NO = 999
REV_AT_EPOCH   = 267
BSTAR          = -.37911401E-2
MEAN_MOTION_DOT = -.1564872E-1
MEAN_MOTION_DDOT = .72226322E-3

CCSDS_OMM_VERS = 2.0
CREATION_DATE  = 
ORIGINATOR     = 

OBJECT_NAME    = STARLINK-36338
OBJECT_ID      = 2026-025M
CENTER_NAME    = EARTH
REF_FRAME      = TEME
TIME_SYSTEM    = UTC
MEAN_ELEMENT_THEORY = SGP/SGP4

EPOCH          = 2026-02-17T22:00:01.999584
MEAN_MOTION    = 15.96693047
ECCENTRICITY   = .00014589
INCLINATION    = 97.2758
RA_OF_ASC_NODE = 159.4117
ARG_OF_PERICENTER = 80.7044
MEAN_ANOMALY   = 157.3940

EPHEMERIS_TYPE = 0
CLASSIFICATION_TYPE = U
NORAD_CAT_ID   = 67704
ELEMENT_SET_NO = 999
REV_AT_EPOCH   = 272
BSTAR          = -.37225879E-2
MEAN_MOTION_DOT = -.1558977E-1
MEAN_MOTION_DDOT = .71927106E-3

CCSDS_OMM_VERS = 2.0
CREATION_DATE  = 
ORIGINATOR     = 

OBJECT_NAME    = STARLINK-36316
OBJECT_ID      = 2026-025N
CENTER_NAME    = EARTH
REF_FRAME      = TEME
TIME_SYSTEM    = UTC
MEAN_ELEMENT_THEORY = SGP/SGP4

EPOCH          = 2026-02-17T22:00:01.999584
MEAN_MOTION    = 15.97226081
ECCENTRICITY   = .00014544
INCLINATION    = 97.2755
RA_OF_ASC_NODE = 159.4162
ARG_OF_PERICENTER = 74.0816
MEAN_ANOMALY   = 175.1091

EPHEMERIS_TYPE = 0
CLASSIFICATION_TYPE = U
NORAD_CAT_ID   = 67705
ELEMENT_SET_NO = 999
REV_AT_EPOCH   = 272
BSTAR          = -.3564358E-2
MEAN_MOTION_DOT = -.1536883E-1
MEAN_MOTION_DDOT = .70449405E-3

